{"type": "FeatureCollection", "features": [ {"type": "Feature", "properties": {"norad_id": 34682, "name": "COSMOS 2251 DEB", "group": "cosmos-2251-debris", "lat": 14.75505544744316, "lon": 91.61222651736543, "alt_km": 709.2845638325689, "timestamp": "2025-12-10T11:33:53.778923+00:00", "meta": {"OBJECT_NAME": "COSMOS 2251 DEB", "OBJECT_ID": "1993-036YC", "EPOCH": "2025-12-08T13:28:57.741024", "MEAN_MOTION": 14.58847249, "ECCENTRICITY": 0.0018543, "INCLINATION": 74.04, "RA_OF_ASC_NODE": 90.9444, "ARG_OF_PERICENTER": 224.1225, "MEAN_ANOMALY": 151.2779, "EPHEMERIS_TYPE": 0, "CLASSIFICATION_TYPE": "U", "NORAD_CAT_ID": 34682, "ELEMENT_SET_NO": 999, "REV_AT_EPOCH": 88625, "BSTAR": 0.0013547, "MEAN_MOTION_DOT": 6.331e-05, "MEAN_MOTION_DDOT": 0}, "tle": {"line1": "1 34682U 93036YC  25342.56177941  .00006331  00000+0  13547-2 0  9994", "line2": "2 34682  74.0400  90.9444 0018543 224.1225 151.2779 14.58847249886252"}}, "geometry": {"type": "Point", "coordinates": [91.61222651736543, 14.75505544744316]}}, {"type": "Feature", "properties": {"norad_id": 34683, "name": "COSMOS 2251 DEB", "group": "cosmos-2251-debris", "lat": 54.253509517693935, "lon": -106.8366544751597, "alt_km": 673.1204534650924, "timestamp": "2025-12-10T11:33:53.778933+00:00", "meta": {"OBJECT_NAME": "COSMOS 2251 DEB", "OBJECT_ID": "1993-036YD", "EPOCH": "2025-12-09T09:01:51.949344", "MEAN_MOTION": 14.64408596, "ECCENTRICITY": 0.00185052, "INCLINATION": 74.0289, "RA_OF_ASC_NODE": 98.7331, "ARG_OF_PERICENTER": 213.5344, "MEAN_ANOMALY": 202.9303, "EPHEMERIS_TYPE": 0, "CLASSIFICATION_TYPE": "U", "NORAD_CAT_ID": 34683, "ELEMENT_SET_NO": 999, "REV_AT_EPOCH": 88299, "BSTAR": 0.0019964072, "MEAN_MOTION_DOT": 0.00010571, "MEAN_MOTION_DDOT": 0}, "tle": {"line1": "1 34683U 93036YD  25343.37629571  .00010571  00000+0  19964-2 0  9996", "line2": "2 34683  74.0289  98.7331 0018505 213.5344 202.9303 14.64408596882990"}}, "geometry": {"type": "Point", "coordinates": [-106.8366544751597, 54.253509517693935]}}, {"type": "Feature", "properties": {"norad_id": 34685, "name": "COSMOS 2251 DEB", "group": "cosmos-2251-debris", "lat": -28.79311280345561, "lon": 144.01991088152522, "alt_km": 703.9110783210162, "timestamp": "2025-12-10T11:33:53.778942+00:00", "meta": {"OBJECT_NAME": "COSMOS 2251 DEB", "OBJECT_ID": "1993-036YF", "EPOCH": "2025-12-09T21:34:32.189088", "MEAN_MOTION": 14.57463566, "ECCENTRICITY": 0.0014309, "INCLINATION": 74.0292, "RA_OF_ASC_NODE": 154.1834, "ARG_OF_PERICENTER": 258.2035, "MEAN_ANOMALY": 254.5837, "EPHEMERIS_TYPE": 0, "CLASSIFICATION_TYPE": "U", "NORAD_CAT_ID": 34685, "ELEMENT_SET_NO": 999, "REV_AT_EPOCH": 88490, "BSTAR": 0.0014291, "MEAN_MOTION_DOT": 6.476e-05, "MEAN_MOTION_DDOT": 0}, "tle": {"line1": "1 34685U 93036YF  25343.89898367  .00006476  00000+0  14291-2 0  9993", "line2": "2 34685  74.0292 154.1834 0014309 258.2035 254.5837 14.57463566884900"}}, "geometry": {"type": "Point", "coordinates": [144.01991088152522, -28.79311280345561]}}, {"type": "Feature", "properties": {"norad_id": 34689, "name": "COSMOS 2251 DEB", "group": "cosmos-2251-debris", "lat": -57.21983324630284, "lon": 73.60323669587846, "alt_km": 789.4544490560547, "timestamp": "2025-12-10T11:33:53.778952+00:00", "meta": {"OBJECT_NAME": "COSMOS 2251 DEB", "OBJECT_ID": "1993-036YK", "EPOCH": "2025-12-09T15:43:43.204224", "MEAN_MOTION": 14.04380278, "ECCENTRICITY": 0.022877, "INCLINATION": 74.0977, "RA_OF_ASC_NODE": 228.7634, "ARG_OF_PERICENTER": 298.3373, "MEAN_ANOMALY": 87.6678, "EPHEMERIS_TYPE": 0, "CLASSIFICATION_TYPE": "U", "NORAD_CAT_ID": 34689, "ELEMENT_SET_NO": 999, "REV_AT_EPOCH": 84298, "BSTAR": 0.0057121, "MEAN_MOTION_DOT": 0.00011476, "MEAN_MOTION_DDOT": 0}, "tle": {"line1": "1 34689U 93036YK  25343.65536116  .00011476  00000+0  57121-2 0  9997", "line2": "2 34689  74.0977 228.7634 0228770 298.3373  87.6678 14.04380278842989"}}, "geometry": {"type": "Point", "coordinates": [73.60323669587846, -57.21983324630284]}}, {"type": "Feature", "properties": {"norad_id": 34721, "name": "COSMOS 2251 DEB", "group": "cosmos-2251-debris", "lat": -22.090726278516264, "lon": -36.55364427940266, "alt_km": 844.4289483207967, "timestamp": "2025-12-10T11:33:53.778962+00:00", "meta": {"OBJECT_NAME": "COSMOS 2251 DEB", "OBJECT_ID": "1993-036YP", "EPOCH": "2025-12-08T23:44:20.442336", "MEAN_MOTION": 13.96821392, "ECCENTRICITY": 0.02238657, "INCLINATION": 73.9235, "RA_OF_ASC_NODE": 332.7561, "ARG_OF_PERICENTER": 272.3834, "MEAN_ANOMALY": 118.8256, "EPHEMERIS_TYPE": 0, "CLASSIFICATION_TYPE": "U", "NORAD_CAT_ID": 34721, "ELEMENT_SET_NO": 999, "REV_AT_EPOCH": 85097, "BSTAR": 0.0019617403, "MEAN_MOTION_DOT": 3.345e-05, "MEAN_MOTION_DDOT": 0}, "tle": {"line1": "1 34721U 93036YP  25342.98912549  .00003345  00000+0  19617-2 0  9991", "line2": "2 34721  73.9235 332.7561 0223865 272.3834 118.8256 13.96821392850974"}}, "geometry": {"type": "Point", "coordinates": [-36.55364427940266, -22.090726278516264]}}, {"type": "Feature", "properties": {"norad_id": 34722, "name": "COSMOS 2251 DEB", "group": "cosmos-2251-debris", "lat": 70.05596886702519, "lon": 32.972987184751325, "alt_km": 965.4162807478806, "timestamp": "2025-12-10T11:33:53.778972+00:00", "meta": {"OBJECT_NAME": "COSMOS 2251 DEB", "OBJECT_ID": "1993-036YQ", "EPOCH": "2025-12-10T01:16:07.902336", "MEAN_MOTION": 14.11920598, "ECCENTRICITY": 0.0167244, "INCLINATION": 73.873, "RA_OF_ASC_NODE": 340.8603, "ARG_OF_PERICENTER": 266.8841, "MEAN_ANOMALY": 151.2497, "EPHEMERIS_TYPE": 0, "CLASSIFICATION_TYPE": "U", "NORAD_CAT_ID": 34722, "ELEMENT_SET_NO": 999, "REV_AT_EPOCH": 86207, "BSTAR": 0.0011884, "MEAN_MOTION_DOT": 2.452e-05, "MEAN_MOTION_DDOT": 0}, "tle": {"line1": "1 34722U 93036YQ  25344.05286924  .00002452  00000+0  11884-2 0  9999", "line2": "2 34722  73.8730 340.8603 0167244 266.8841 151.2497 14.11920598862073"}}, "geometry": {"type": "Point", "coordinates": [32.972987184751325, 70.05596886702519]}}, {"type": "Feature", "properties": {"norad_id": 34726, "name": "COSMOS 2251 DEB", "group": "cosmos-2251-debris", "lat": 70.97980225799434, "lon": 46.80894925244744, "alt_km": 673.9011037613282, "timestamp": "2025-12-10T11:33:53.778982+00:00", "meta": {"OBJECT_NAME": "COSMOS 2251 DEB", "OBJECT_ID": "1993-036YU", "EPOCH": "2025-12-10T02:58:32.456928", "MEAN_MOTION": 14.59465527, "ECCENTRICITY": 0.0042097, "INCLINATION": 74.0291, "RA_OF_ASC_NODE": 351.3133, "ARG_OF_PERICENTER": 142.9873, "MEAN_ANOMALY": 217.4209, "EPHEMERIS_TYPE": 0, "CLASSIFICATION_TYPE": "U", "NORAD_CAT_ID": 34726, "ELEMENT_SET_NO": 999, "REV_AT_EPOCH": 88464, "BSTAR": 0.00055033, "MEAN_MOTION_DOT": 2.613e-05, "MEAN_MOTION_DDOT": 0}, "tle": {"line1": "1 34726U 93036YU  25344.12398677  .00002613  00000+0  55033-3 0  9994", "line2": "2 34726  74.0291 351.3133 0042097 142.9873 217.4209 14.59465527884645"}}, "geometry": {"type": "Point", "coordinates": [46.80894925244744, 70.97980225799434]}}, {"type": "Feature", "properties": {"norad_id": 34728, "name": "COSMOS 2251 DEB", "group": "cosmos-2251-debris", "lat": -43.71097356480288, "lon": 92.06110810289728, "alt_km": 693.317300445302, "timestamp": "2025-12-10T11:33:53.778991+00:00", "meta": {"OBJECT_NAME": "COSMOS 2251 DEB", "OBJECT_ID": "1993-036YW", "EPOCH": "2025-12-09T11:41:21.069888", "MEAN_MOTION": 14.70794927, "ECCENTRICITY": 0.00409671, "INCLINATION": 74.0171, "RA_OF_ASC_NODE": 258.0914, "ARG_OF_PERICENTER": 56.6298, "MEAN_ANOMALY": 303.8783, "EPHEMERIS_TYPE": 0, "CLASSIFICATION_TYPE": "U", "NORAD_CAT_ID": 34728, "ELEMENT_SET_NO": 999, "REV_AT_EPOCH": 88752, "BSTAR": 0.0012390282, "MEAN_MOTION_DOT": 7.642e-05, "MEAN_MOTION_DDOT": 0}, "tle": {"line1": "1 34728U 93036YW  25343.48704942  .00007642  00000+0  12390-2 0  9995", "line2": "2 34728  74.0171 258.0914 0040967  56.6298 303.8783 14.70794927887529"}}, "geometry": {"type": "Point", "coordinates": [92.06110810289728, -43.71097356480288]}}, {"type": "Feature", "properties": {"norad_id": 34729, "name": "COSMOS 2251 DEB", "group": "cosmos-2251-debris", "lat": 35.60233580616862, "lon": 171.06127536809782, "alt_km": 610.2515695507136, "timestamp": "2025-12-10T11:33:53.779001+00:00", "meta": {"OBJECT_NAME": "COSMOS 2251 DEB", "OBJECT_ID": "1993-036YX", "EPOCH": "2025-12-10T03:04:59.318112", "MEAN_MOTION": 14.82672735, "ECCENTRICITY": 0.0011875, "INCLINATION": 74.0185, "RA_OF_ASC_NODE": 3.6017, "ARG_OF_PERICENTER": 124.2323, "MEAN_ANOMALY": 292.7862, "EPHEMERIS_TYPE": 0, "CLASSIFICATION_TYPE": "U", "NORAD_CAT_ID": 34729, "ELEMENT_SET_NO": 999, "REV_AT_EPOCH": 88419, "BSTAR": 0.00254, "MEAN_MOTION_DOT": 0.00020537, "MEAN_MOTION_DDOT": 0}, "tle": {"line1": "1 34729U 93036YX  25344.12846433  .00020537  00000+0  25400-2 0  9994", "line2": "2 34729  74.0185   3.6017 0011875 124.2323 292.7862 14.82672735884199"}}, "geometry": {"type": "Point", "coordinates": [171.06127536809782, 35.60233580616862]}}, {"type": "Feature", "properties": {"norad_id": 34732, "name": "COSMOS 2251 DEB", "group": "cosmos-2251-debris", "lat": -59.15190950275761, "lon": 68.78559080266373, "alt_km": 721.9478090380971, "timestamp": "2025-12-10T11:33:53.779044+00:00", "meta": {"OBJECT_NAME": "COSMOS 2251 DEB", "OBJECT_ID": "1993-036ZA", "EPOCH": "2025-12-09T18:18:26.630208", "MEAN_MOTION": 14.47295716, "ECCENTRICITY": 0.0040447, "INCLINATION": 74.045, "RA_OF_ASC_NODE": 98.7484, "ARG_OF_PERICENTER": 250.3233, "MEAN_ANOMALY": 261.1476, "EPHEMERIS_TYPE": 0, "CLASSIFICATION_TYPE": "U", "NORAD_CAT_ID": 34732, "ELEMENT_SET_NO": 999, "REV_AT_EPOCH": 88100, "BSTAR": 0.00028381, "MEAN_MOTION_DOT": 1.021e-05, "MEAN_MOTION_DDOT": 0}, "tle": {"line1": "1 34732U 93036ZA  25343.76280822  .00001021  00000+0  28381-3 0  9990", "line2": "2 34732  74.0450  98.7484 0040447 250.3233 261.1476 14.47295716881008"}}, "geometry": {"type": "Point", "coordinates": [68.78559080266373, -59.15190950275761]}}]}